[{"OBJECT_NAME":"STARLINK-36900","OBJECT_ID":"2026-038N","EPOCH":"2026-03-15T22:00:01.999584","MEAN_MOTION":15.67421618,"ECCENTRICITY":0.00018958,"INCLINATION":97.2847,"RA_OF_ASC_NODE":85.554,"ARG_OF_PERICENTER":84.6138,"MEAN_ANOMALY":96.6388,"EPHEMERIS_TYPE":0,"CLASSIFICATION_TYPE":"U","NORAD_CAT_ID":67973,"ELEMENT_SET_NO":999,"REV_AT_EPOCH":420,"BSTAR":-0.0240113,"MEAN_MOTION_DOT":-0.02244765,"MEAN_MOTION_DDOT":0},{"OBJECT_NAME":"STARLINK-36901","OBJECT_ID":"2026-038P","EPOCH":"2026-03-15T22:00:01.999584","MEAN_MOTION":15.75260616,"ECCENTRICITY":0.00011379,"INCLINATION":97.2871,"RA_OF_ASC_NODE":85.5563,"ARG_OF_PERICENTER":101.937,"MEAN_ANOMALY":94.5535,"EPHEMERIS_TYPE":0,"CLASSIFICATION_TYPE":"U","NORAD_CAT_ID":67974,"ELEMENT_SET_NO":999,"REV_AT_EPOCH":420,"BSTAR":-0.0011846449,"MEAN_MOTION_DOT":-0.0017381,"MEAN_MOTION_DDOT":0},{"OBJECT_NAME":"STARLINK-36883","OBJECT_ID":"2026-038Q","EPOCH":"2026-03-15T22:00:01.999584","MEAN_MOTION":15.75248055,"ECCENTRICITY":0.00014604,"INCLINATION":97.2871,"RA_OF_ASC_NODE":85.571,"ARG_OF_PERICENTER":65.0443,"MEAN_ANOMALY":167.4415,"EPHEMERIS_TYPE":0,"CLASSIFICATION_TYPE":"U","NORAD_CAT_ID":67975,"ELEMENT_SET_NO":999,"REV_AT_EPOCH":420,"BSTAR":-0.00055321811,"MEAN_MOTION_DOT":-0.00082066,"MEAN_MOTION_DDOT":0},{"OBJECT_NAME":"STARLINK-36880","OBJECT_ID":"2026-038R","EPOCH":"2026-03-15T22:00:01.999584","MEAN_MOTION":15.63722559,"ECCENTRICITY":0.00019147,"INCLINATION":97.2839,"RA_OF_ASC_NODE":85.5448,"ARG_OF_PERICENTER":79.8725,"MEAN_ANOMALY":84.1767,"EPHEMERIS_TYPE":0,"CLASSIFICATION_TYPE":"U","NORAD_CAT_ID":67976,"ELEMENT_SET_NO":999,"REV_AT_EPOCH":420,"BSTAR":-0.027726801,"MEAN_MOTION_DOT":-0.02281608,"MEAN_MOTION_DDOT":0},{"OBJECT_NAME":"STARLINK-36904","OBJECT_ID":"2026-038S","EPOCH":"2026-03-15T22:00:01.999584","MEAN_MOTION":15.75177555,"ECCENTRICITY":9.347e-5,"INCLINATION":97.2871,"RA_OF_ASC_NODE":85.5672,"ARG_OF_PERICENTER":81.2442,"MEAN_ANOMALY":143.2798,"EPHEMERIS_TYPE":0,"CLASSIFICATION_TYPE":"U","NORAD_CAT_ID":67977,"ELEMENT_SET_NO":999,"REV_AT_EPOCH":420,"BSTAR":0.00017158509,"MEAN_MOTION_DOT":0.00025525,"MEAN_MOTION_DDOT":0},{"OBJECT_NAME":"STARLINK-36364","OBJECT_ID":"2026-038T","EPOCH":"2026-03-15T22:00:01.999584","MEAN_MOTION":15.75240899,"ECCENTRICITY":0.00014378,"INCLINATION":97.2871,"RA_OF_ASC_NODE":85.5771,"ARG_OF_PERICENTER":73.4971,"MEAN_ANOMALY":174.9749,"EPHEMERIS_TYPE":0,"CLASSIFICATION_TYPE":"U","NORAD_CAT_ID":67978,"ELEMENT_SET_NO":999,"REV_AT_EPOCH":420,"BSTAR":-0.00028899615,"MEAN_MOTION_DOT":-0.00043114,"MEAN_MOTION_DDOT":0},{"OBJECT_NAME":"STARLINK-36359","OBJECT_ID":"2026-038U","EPOCH":"2026-03-15T22:00:01.999584","MEAN_MOTION":15.75204507,"ECCENTRICITY":0.00014357,"INCLINATION":97.2873,"RA_OF_ASC_NODE":85.5648,"ARG_OF_PERICENTER":110.408,"MEAN_ANOMALY":106.1094,"EPHEMERIS_TYPE":0,"CLASSIFICATION_TYPE":"U","NORAD_CAT_ID":67979,"ELEMENT_SET_NO":999,"REV_AT_EPOCH":420,"BSTAR":-0.0002036216,"MEAN_MOTION_DOT":-0.00030413,"MEAN_MOTION_DDOT":0},{"OBJECT_NAME":"STARLINK-36882","OBJECT_ID":"2026-038V","EPOCH":"2026-03-15T22:00:01.999584","MEAN_MOTION":15.75226843,"ECCENTRICITY":0.00014118,"INCLINATION":97.2871,"RA_OF_ASC_NODE":85.5734,"ARG_OF_PERICENTER":73.3996,"MEAN_ANOMALY":167.0917,"EPHEMERIS_TYPE":0,"CLASSIFICATION_TYPE":"U","NORAD_CAT_ID":67980,"ELEMENT_SET_NO":999,"REV_AT_EPOCH":420,"BSTAR":-0.00030208336,"MEAN_MOTION_DOT":-0.00045023,"MEAN_MOTION_DDOT":0},{"OBJECT_NAME":"STARLINK-36874","OBJECT_ID":"2026-038W","EPOCH":"2026-03-15T22:00:01.999584","MEAN_MOTION":15.75200301,"ECCENTRICITY":0.00015056,"INCLINATION":97.2866,"RA_OF_ASC_NODE":85.5793,"ARG_OF_PERICENTER":109.9801,"MEAN_ANOMALY":144.515,"EPHEMERIS_TYPE":0,"CLASSIFICATION_TYPE":"U","NORAD_CAT_ID":67981,"ELEMENT_SET_NO":999,"REV_AT_EPOCH":420,"BSTAR":2.0440631e-5,"MEAN_MOTION_DOT":2.921e-5,"MEAN_MOTION_DDOT":0},{"OBJECT_NAME":"STARLINK-36879","OBJECT_ID":"2026-038X","EPOCH":"2026-03-15T22:00:01.999584","MEAN_MOTION":15.6571805,"ECCENTRICITY":0.00017531,"INCLINATION":97.2809,"RA_OF_ASC_NODE":85.5681,"ARG_OF_PERICENTER":92.6646,"MEAN_ANOMALY":138.2019,"EPHEMERIS_TYPE":0,"CLASSIFICATION_TYPE":"U","NORAD_CAT_ID":67982,"ELEMENT_SET_NO":999,"REV_AT_EPOCH":420,"BSTAR":-0.025588188,"MEAN_MOTION_DOT":-0.02233858,"MEAN_MOTION_DDOT":0},{"OBJECT_NAME":"STARLINK-36867","OBJECT_ID":"2026-038Y","EPOCH":"2026-03-15T22:00:01.999584","MEAN_MOTION":15.68865241,"ECCENTRICITY":0.00015919,"INCLINATION":97.2805,"RA_OF_ASC_NODE":85.5818,"ARG_OF_PERICENTER":91.3707,"MEAN_ANOMALY":173.0655,"EPHEMERIS_TYPE":0,"CLASSIFICATION_TYPE":"U","NORAD_CAT_ID":67983,"ELEMENT_SET_NO":999,"REV_AT_EPOCH":420,"BSTAR":-0.022680817,"MEAN_MOTION_DOT":-0.02249127,"MEAN_MOTION_DDOT":0},{"OBJECT_NAME":"STARLINK-36266","OBJECT_ID":"2026-038Z","EPOCH":"2026-03-15T22:00:01.999584","MEAN_MOTION":15.75211297,"ECCENTRICITY":0.00014614,"INCLINATION":97.2867,"RA_OF_ASC_NODE":85.5853,"ARG_OF_PERICENTER":99.0532,"MEAN_ANOMALY":171.447,"EPHEMERIS_TYPE":0,"CLASSIFICATION_TYPE":"U","NORAD_CAT_ID":67984,"ELEMENT_SET_NO":999,"REV_AT_EPOCH":417,"BSTAR":-0.00010409646,"MEAN_MOTION_DOT":-0.00015642,"MEAN_MOTION_DDOT":0},{"OBJECT_NAME":"STARLINK-36802","OBJECT_ID":"2026-038AA","EPOCH":"2026-03-15T22:00:01.999584","MEAN_MOTION":15.75261871,"ECCENTRICITY":0.00016258,"INCLINATION":97.2837,"RA_OF_ASC_NODE":85.5886,"ARG_OF_PERICENTER":89.0863,"MEAN_ANOMALY":195.365,"EPHEMERIS_TYPE":0,"CLASSIFICATION_TYPE":"U","NORAD_CAT_ID":67985,"ELEMENT_SET_NO":999,"REV_AT_EPOCH":420,"BSTAR":-0.00056803569,"MEAN_MOTION_DOT":-0.0008429,"MEAN_MOTION_DDOT":0},{"OBJECT_NAME":"STARLINK-36535","OBJECT_ID":"2026-039A","EPOCH":"2026-03-15T22:00:01.999584","MEAN_MOTION":15.76066089,"ECCENTRICITY":0.00013853,"INCLINATION":42.9991,"RA_OF_ASC_NODE":16.8154,"ARG_OF_PERICENTER":245.4853,"MEAN_ANOMALY":12.1453,"EPHEMERIS_TYPE":0,"CLASSIFICATION_TYPE":"U","NORAD_CAT_ID":67986,"ELEMENT_SET_NO":999,"REV_AT_EPOCH":387,"BSTAR":-0.013771528,"MEAN_MOTION_DOT":-0.0192219,"MEAN_MOTION_DDOT":0},{"OBJECT_NAME":"STARLINK-36744","OBJECT_ID":"2026-039B","EPOCH":"2026-03-15T22:00:01.999584","MEAN_MOTION":15.77534434,"ECCENTRICITY":0.00015035,"INCLINATION":42.9992,"RA_OF_ASC_NODE":16.7875,"ARG_OF_PERICENTER":254.625,"MEAN_ANOMALY":13.8948,"EPHEMERIS_TYPE":0,"CLASSIFICATION_TYPE":"U","NORAD_CAT_ID":67987,"ELEMENT_SET_NO":999,"REV_AT_EPOCH":387,"BSTAR":-0.012894294,"MEAN_MOTION_DOT":-0.01922758,"MEAN_MOTION_DDOT":0},{"OBJECT_NAME":"STARLINK-36734","OBJECT_ID":"2026-039C","EPOCH":"2026-03-15T22:00:01.999584","MEAN_MOTION":15.5971061,"ECCENTRICITY":0.00014902,"INCLINATION":42.9999,"RA_OF_ASC_NODE":17.2891,"ARG_OF_PERICENTER":262.6648,"MEAN_ANOMALY":164.6092,"EPHEMERIS_TYPE":0,"CLASSIFICATION_TYPE":"U","NORAD_CAT_ID":67988,"ELEMENT_SET_NO":999,"REV_AT_EPOCH":387,"BSTAR":-0.026312353,"MEAN_MOTION_DOT":-0.01909471,"MEAN_MOTION_DDOT":0}]
