STARLINK-36900          
1 67973U 26038N   26074.91668981 -.02244765  00000+0 -24011-1 0  9998
2 67973  97.2847  85.5540 0001895  84.6138  96.6388 15.67421618  4208
STARLINK-36901          
1 67974U 26038P   26074.91668981 -.00173810  00000+0 -11846-2 0  9992
2 67974  97.2871  85.5563 0001137 101.9370  94.5535 15.75260616  4200
STARLINK-36883          
1 67975U 26038Q   26074.91668981 -.00082066  00000+0 -55322-3 0  9993
2 67975  97.2871  85.5710 0001460  65.0443 167.4415 15.75248055  4205
STARLINK-36880          
1 67976U 26038R   26074.91668981 -.02281608  00000+0 -27727-1 0  9995
2 67976  97.2839  85.5448 0001914  79.8725  84.1767 15.63722559  4206
STARLINK-36904          
1 67977U 26038S   26074.91668981  .00025525  00000+0  17159-3 0  9996
2 67977  97.2871  85.5672 0000934  81.2442 143.2798 15.75177555  4200
STARLINK-36364          
1 67978U 26038T   26074.91668981 -.00043114  00000+0 -28900-3 0  9999
2 67978  97.2871  85.5771 0001437  73.4971 174.9749 15.75240899  4209
STARLINK-36359          
1 67979U 26038U   26074.91668981 -.00030413  00000+0 -20362-3 0  9992
2 67979  97.2873  85.5648 0001435 110.4080 106.1094 15.75204507  4202
STARLINK-36882          
1 67980U 26038V   26074.91668981 -.00045023  00000+0 -30208-3 0  9997
2 67980  97.2871  85.5734 0001411  73.3996 167.0917 15.75226843  4202
STARLINK-36874          
1 67981U 26038W   26074.91668981  .00002921  00000+0  20441-4 0  9995
2 67981  97.2866  85.5793 0001505 109.9801 144.5150 15.75200301  4207
STARLINK-36879          
1 67982U 26038X   26074.91668981 -.02233858  00000+0 -25588-1 0  9999
2 67982  97.2809  85.5681 0001753  92.6646 138.2019 15.65718050  4209
STARLINK-36867          
1 67983U 26038Y   26074.91668981 -.02249127  00000+0 -22681-1 0  9997
2 67983  97.2805  85.5818 0001591  91.3707 173.0655 15.68865241  4203
STARLINK-36266          
1 67984U 26038Z   26074.91668981 -.00015642  00000+0 -10410-3 0  9998
2 67984  97.2867  85.5853 0001461  99.0532 171.4470 15.75211297  4175
STARLINK-36802          
1 67985U 26038AA  26074.91668981 -.00084290  00000+0 -56804-3 0  9991
2 67985  97.2837  85.5886 0001625  89.0863 195.3650 15.75261871  4209
STARLINK-36535          
1 67986U 26039A   26074.91668981 -.01922190  00000+0 -13772-1 0  9999
2 67986  42.9991  16.8154 0001385 245.4853  12.1453 15.76066089  3877
STARLINK-36744          
1 67987U 26039B   26074.91668981 -.01922758  00000+0 -12894-1 0  9994
2 67987  42.9992  16.7875 0001503 254.6250  13.8948 15.77534434  3875
STARLINK-36734          
1 67988U 26039C   26074.91668981 -.01909471  00000+0 -26312-1 0  9992
2 67988  42.9999  17.2891 0001490 262.6648 164.6092 15.59710610  3879
